0 MOLNIYA 1-42
1 11007U 78080A   13280.36281749  .00000174  00000-0  00000+0 0  4587
2 11007 062.5854 197.9199 7037845 249.7859 324.4194 02.31256023275931
0 MOLNIYA 1-42
1 11007U 78080A   13283.29869519  .00000163  00000-0  00000+0 0  4598
2 11007 062.5839 197.4153 7038539 249.8054 248.6423 02.31255845276000
0 MOLNIYA 1-42
1 11007U 78080A   13288.17607473  .00000116  00000-0  00000+0 0  4609
2 11007 062.5813 196.5756 7039654 249.8387 349.2294 02.31255620276116
0 MOLNIYA 1-42
1 11007U 78080A   13290.81502319  .00000116  00000-0  00000+0 0  4617
2 11007 062.5757 196.1517 7040501 249.8472 026.2444 02.31256198276178
0 MOLNIYA 1-42
1 11007U 78080A   13292.97707585  .00000126  00000-0  00000+0 0  4620
2 11007 062.5748 195.7743 7040776 249.8608 026.2228 02.31255917276223
0 MOLNIYA 1-42
1 11007U 78080A   13294.22989208  .00000131  00000-0  00000+0 0  4631
2 11007 062.5779 195.5319 7040880 249.8798 349.2359 02.31255545276253
